IRIDIUM 116             
1 43072U 17083C   24358.09035970  .00000085  00000+0  23223-4 0  9998
2 43072  86.3985 188.1448 0001924  95.2437 264.8979 14.34217955366615
IRIDIUM 130             
1 43073U 17083D   24358.05864672  .00000142  00000+0  43750-4 0  9995
2 43073  86.3993 188.3804 0001788  89.8002 270.3399 14.34218392366555
IRIDIUM 151             
1 43074U 17083E   24358.10304718  .00000063  00000+0  15328-4 0  9994
2 43074  86.3986 188.1850 0002118  92.8286 267.3152 14.34219466366582
IRIDIUM 134             
1 43075U 17083F   24357.58294929  .00000080  00000+0  21581-4 0  9995
2 43075  86.3989 188.4029 0001878  91.2016 268.9395 14.34217355366472
IRIDIUM 137             
1 43076U 17083G   24357.66540574  .00000166  00000+0  52349-4 0  9996
2 43076  86.3990 188.4499 0002224 103.2157 256.9287 14.34218009366555
IRIDIUM 141             
1 43077U 17083H   24358.07767418  .00000121  00000+0  36183-4 0  9990
2 43077  86.3986 188.1395 0001999  79.9246 280.2175 14.34217906366617
IRIDIUM 153             
1 43078U 17083J   24357.89031337  .00000122  00000+0  36367-4 0  9999
2 43078  86.3990 156.7439 0002200  76.2712 283.8729 14.34217152367693
IRIDIUM 131             
1 43079U 17083K   24357.64637214  .00000123  00000+0  36708-4 0  9999
2 43079  86.3991 188.4693 0002178  87.9046 272.2399 14.34217253366485
